{"type": "FeatureCollection", "features": [ {"type": "Feature", "properties": {"norad_id": 65077, "name": "CREW DRAGON 11", "group": "stations", "lat": -14.43594374835322, "lon": 157.57553413973037, "alt_km": 422.34086047971505, "timestamp": "2025-12-07T07:31:35.103270+00:00", "meta": {"OBJECT_NAME": "CREW DRAGON 11", "OBJECT_ID": "2025-166A", "EPOCH": "2025-12-06T20:46:13.238400", "MEAN_MOTION": 15.49374779, "ECCENTRICITY": 0.00034973, "INCLINATION": 51.6304, "RA_OF_ASC_NODE": 171.5636, "ARG_OF_PERICENTER": 213.1314, "MEAN_ANOMALY": 146.9456, "EPHEMERIS_TYPE": 0, "CLASSIFICATION_TYPE": "U", "NORAD_CAT_ID": 65077, "ELEMENT_SET_NO": 999, "REV_AT_EPOCH": 214, "BSTAR": 0.00025393652, "MEAN_MOTION_DOT": 0.0001375, "MEAN_MOTION_DDOT": 0}, "tle": {"line1": "1 65077U 25166A   25340.86543100  .00013750  00000+0  25394-3 0  9997", "line2": "2 65077  51.6304 171.5636 0003497 213.1314 146.9456 15.49374779  2141"}}, "geometry": {"type": "Point", "coordinates": [157.57553413973037, -14.43594374835322]}}, {"type": "Feature", "properties": {"norad_id": 65304, "name": "DRAGON CRS-33", "group": "stations", "lat": -14.435943154018048, "lon": 157.57553465191526, "alt_km": 422.34086044651394, "timestamp": "2025-12-07T07:31:35.103282+00:00", "meta": {"OBJECT_NAME": "DRAGON CRS-33", "OBJECT_ID": "2025-186A", "EPOCH": "2025-12-06T20:46:13.238400", "MEAN_MOTION": 15.49374779, "ECCENTRICITY": 0.00034973, "INCLINATION": 51.6304, "RA_OF_ASC_NODE": 171.5636, "ARG_OF_PERICENTER": 213.1314, "MEAN_ANOMALY": 146.9456, "EPHEMERIS_TYPE": 0, "CLASSIFICATION_TYPE": "U", "NORAD_CAT_ID": 65304, "ELEMENT_SET_NO": 999, "REV_AT_EPOCH": 11, "BSTAR": 0.00025393652, "MEAN_MOTION_DOT": 0.0001375, "MEAN_MOTION_DDOT": 0}, "tle": {"line1": "1 65304U 25186A   25340.86543100  .00013750  00000+0  25394-3 0  9992", "line2": "2 65304  51.6304 171.5636 0003497 213.1314 146.9456 15.49374779   119"}}, "geometry": {"type": "Point", "coordinates": [157.57553465191526, -14.435943154018048]}}, {"type": "Feature", "properties": {"norad_id": 65586, "name": "PROGRESS-MS 32", "group": "stations", "lat": -14.435942658737831, "lon": 157.57553507873675, "alt_km": 422.3408604188462, "timestamp": "2025-12-07T07:31:35.103292+00:00", "meta": {"OBJECT_NAME": "PROGRESS-MS 32", "OBJECT_ID": "2025-204A", "EPOCH": "2025-12-06T20:46:13.238400", "MEAN_MOTION": 15.49374779, "ECCENTRICITY": 0.00034973, "INCLINATION": 51.6304, "RA_OF_ASC_NODE": 171.5636, "ARG_OF_PERICENTER": 213.1314, "MEAN_ANOMALY": 146.9456, "EPHEMERIS_TYPE": 0, "CLASSIFICATION_TYPE": "U", "NORAD_CAT_ID": 65586, "ELEMENT_SET_NO": 999, "REV_AT_EPOCH": 27, "BSTAR": 0.00025393652, "MEAN_MOTION_DOT": 0.0001375, "MEAN_MOTION_DDOT": 0}, "tle": {"line1": "1 65586U 25204A   25340.86543100  .00013750  00000+0  25394-3 0  9995", "line2": "2 65586  51.6304 171.5636 0003497 213.1314 146.9456 15.49374779   278"}}, "geometry": {"type": "Point", "coordinates": [157.57553507873675, -14.435942658737831]}}, {"type": "Feature", "properties": {"norad_id": 65616, "name": "CYGNUS NG-23", "group": "stations", "lat": -14.435942163457922, "lon": 157.57553550555798, "alt_km": 422.34086039117847, "timestamp": "2025-12-07T07:31:35.103302+00:00", "meta": {"OBJECT_NAME": "CYGNUS NG-23", "OBJECT_ID": "2025-208A", "EPOCH": "2025-12-06T20:46:13.238400", "MEAN_MOTION": 15.49374779, "ECCENTRICITY": 0.00034973, "INCLINATION": 51.6304, "RA_OF_ASC_NODE": 171.5636, "ARG_OF_PERICENTER": 213.1314, "MEAN_ANOMALY": 146.9456, "EPHEMERIS_TYPE": 0, "CLASSIFICATION_TYPE": "U", "NORAD_CAT_ID": 65616, "ELEMENT_SET_NO": 999, "REV_AT_EPOCH": 22, "BSTAR": 0.00025393652, "MEAN_MOTION_DOT": 0.0001375, "MEAN_MOTION_DDOT": 0}, "tle": {"line1": "1 65616U 25208A   25340.86543100  .00013750  00000+0  25394-3 0  9993", "line2": "2 65616  51.6304 171.5636 0003497 213.1314 146.9456 15.49374779   227"}}, "geometry": {"type": "Point", "coordinates": [157.57553550555798, -14.435942163457922]}}, {"type": "Feature", "properties": {"norad_id": 65729, "name": "DRAGONFLY", "group": "stations", "lat": -51.06726693867935, "lon": 62.30807288366806, "alt_km": 360.1209593140338, "timestamp": "2025-12-07T07:31:35.103315+00:00", "meta": {"OBJECT_NAME": "DRAGONFLY", "OBJECT_ID": "1998-067XH", "EPOCH": "2025-12-06T18:11:12.021792", "MEAN_MOTION": 15.69539731, "ECCENTRICITY": 0.00064636, "INCLINATION": 51.6244, "RA_OF_ASC_NODE": 166.34, "ARG_OF_PERICENTER": 240.1975, "MEAN_ANOMALY": 119.838, "EPHEMERIS_TYPE": 0, "CLASSIFICATION_TYPE": "U", "NORAD_CAT_ID": 65729, "ELEMENT_SET_NO": 999, "REV_AT_EPOCH": 1222, "BSTAR": 0.0016006166, "MEAN_MOTION_DOT": 0.00197078, "MEAN_MOTION_DDOT": 0}, "tle": {"line1": "1 65729U 98067XH  25340.75777803  .00197078  00000+0  16006-2 0  9993", "line2": "2 65729  51.6244 166.3400 0006463 240.1975 119.8380 15.69539731 12226"}}, "geometry": {"type": "Point", "coordinates": [62.30807288366806, -51.06726693867935]}}, {"type": "Feature", "properties": {"norad_id": 65731, "name": "1998-067XK", "group": "stations", "lat": 29.37623885413402, "lon": -168.7769576615388, "alt_km": 374.89213004831436, "timestamp": "2025-12-07T07:31:35.103326+00:00", "meta": {"OBJECT_NAME": "1998-067XK", "OBJECT_ID": "1998-067XK", "EPOCH": "2025-12-06T19:05:46.784832", "MEAN_MOTION": 15.6431708, "ECCENTRICITY": 0.00056148, "INCLINATION": 51.6275, "RA_OF_ASC_NODE": 167.356, "ARG_OF_PERICENTER": 209.7044, "MEAN_ANOMALY": 150.3633, "EPHEMERIS_TYPE": 0, "CLASSIFICATION_TYPE": "U", "NORAD_CAT_ID": 65731, "ELEMENT_SET_NO": 999, "REV_AT_EPOCH": 1221, "BSTAR": 0.001226721, "MEAN_MOTION_DOT": 0.00120927, "MEAN_MOTION_DDOT": 0}, "tle": {"line1": "1 65731U 98067XK  25340.79568038  .00120927  00000+0  12267-2 0  9992", "line2": "2 65731  51.6275 167.3560 0005614 209.7044 150.3633 15.64317080 12212"}}, "geometry": {"type": "Point", "coordinates": [-168.7769576615388, 29.37623885413402]}}, {"type": "Feature", "properties": {"norad_id": 65732, "name": "RSP-03", "group": "stations", "lat": -31.0072164843241, "lon": 135.6985334833943, "alt_km": 372.44020180635925, "timestamp": "2025-12-07T07:31:35.103336+00:00", "meta": {"OBJECT_NAME": "RSP-03", "OBJECT_ID": "1998-067XL", "EPOCH": "2025-12-06T19:27:20.778624", "MEAN_MOTION": 15.66782346, "ECCENTRICITY": 0.00064361, "INCLINATION": 51.6255, "RA_OF_ASC_NODE": 166.6987, "ARG_OF_PERICENTER": 212.9717, "MEAN_ANOMALY": 147.0878, "EPHEMERIS_TYPE": 0, "CLASSIFICATION_TYPE": "U", "NORAD_CAT_ID": 65732, "ELEMENT_SET_NO": 999, "REV_AT_EPOCH": 1223, "BSTAR": 0.0014177456, "MEAN_MOTION_DOT": 0.00155052, "MEAN_MOTION_DDOT": 0}, "tle": {"line1": "1 65732U 98067XL  25340.81065716  .00155052  00000+0  14177-2 0  9990", "line2": "2 65732  51.6255 166.6987 0006436 212.9717 147.0878 15.66782346 12231"}}, "geometry": {"type": "Point", "coordinates": [135.6985334833943, -31.0072164843241]}}, {"type": "Feature", "properties": {"norad_id": 65733, "name": "GHS-01", "group": "stations", "lat": 39.63359970830075, "lon": -57.974950277397575, "alt_km": 349.64881953357417, "timestamp": "2025-12-07T07:31:35.103346+00:00", "meta": {"OBJECT_NAME": "GHS-01", "OBJECT_ID": "1998-067XM", "EPOCH": "2025-12-06T18:47:20.289408", "MEAN_MOTION": 15.71874043, "ECCENTRICITY": 0.00068988, "INCLINATION": 51.6272, "RA_OF_ASC_NODE": 165.7632, "ARG_OF_PERICENTER": 241.192, "MEAN_ANOMALY": 118.8385, "EPHEMERIS_TYPE": 0, "CLASSIFICATION_TYPE": "U", "NORAD_CAT_ID": 65733, "ELEMENT_SET_NO": 999, "REV_AT_EPOCH": 1224, "BSTAR": 0.00174144, "MEAN_MOTION_DOT": 0.00237688, "MEAN_MOTION_DDOT": 0}, "tle": {"line1": "1 65733U 98067XM  25340.78287372  .00237688  00000+0  17414-2 0  9994", "line2": "2 65733  51.6272 165.7632 0006898 241.1920 118.8385 15.71874043 12242"}}, "geometry": {"type": "Point", "coordinates": [-57.974950277397575, 39.63359970830075]}}, {"type": "Feature", "properties": {"norad_id": 65941, "name": "YOTSUBA-KULOVER", "group": "stations", "lat": -50.73418124992131, "lon": 91.4710475087203, "alt_km": 396.2478503222346, "timestamp": "2025-12-07T07:31:35.103357+00:00", "meta": {"OBJECT_NAME": "YOTSUBA-KULOVER", "OBJECT_ID": "1998-067XN", "EPOCH": "2025-12-06T19:33:42.622560", "MEAN_MOTION": 15.58441577, "ECCENTRICITY": 0.00019681, "INCLINATION": 51.6278, "RA_OF_ASC_NODE": 169.7328, "ARG_OF_PERICENTER": 197.1439, "MEAN_ANOMALY": 162.9487, "EPHEMERIS_TYPE": 0, "CLASSIFICATION_TYPE": "U", "NORAD_CAT_ID": 65941, "ELEMENT_SET_NO": 999, "REV_AT_EPOCH": 893, "BSTAR": 0.0011638994, "MEAN_MOTION_DOT": 0.00090951, "MEAN_MOTION_DDOT": 0}, "tle": {"line1": "1 65941U 98067XN  25340.81507665  .00090951  00000+0  11639-2 0  9992", "line2": "2 65941  51.6278 169.7328 0001968 197.1439 162.9487 15.58441577  8934"}}, "geometry": {"type": "Point", "coordinates": [91.4710475087203, -50.73418124992131]}}, {"type": "Feature", "properties": {"norad_id": 65942, "name": "BOTAN", "group": "stations", "lat": -4.488512983914935, "lon": -9.759690049781987, "alt_km": 382.1009502394172, "timestamp": "2025-12-07T07:31:35.103366+00:00", "meta": {"OBJECT_NAME": "BOTAN", "OBJECT_ID": "1998-067XP", "EPOCH": "2025-12-06T18:26:46.199328", "MEAN_MOTION": 15.61316825, "ECCENTRICITY": 0.00039822, "INCLINATION": 51.627, "RA_OF_ASC_NODE": 169.4226, "ARG_OF_PERICENTER": 191.5132, "MEAN_ANOMALY": 168.5771, "EPHEMERIS_TYPE": 0, "CLASSIFICATION_TYPE": "U", "NORAD_CAT_ID": 65942, "ELEMENT_SET_NO": 999, "REV_AT_EPOCH": 893, "BSTAR": 0.001480583, "MEAN_MOTION_DOT": 0.00129965, "MEAN_MOTION_DDOT": 0}, "tle": {"line1": "1 65942U 98067XP  25340.76859027  .00129965  00000+0  14806-2 0  9996", "line2": "2 65942  51.6270 169.4226 0003982 191.5132 168.5771 15.61316825  8936"}}, "geometry": {"type": "Point", "coordinates": [-9.759690049781987, -4.488512983914935]}}]}